NORAD_CAT_ID,OBJECT_NAME,OBJECT_TYPE,EPOCH,MEAN_MOTION,ECCENTRICITY,INCLINATION,RA_OF_ASC_NODE,ARG_OF_PERICENTER,MEAN_ANOMALY,BSTAR,MEAN_MOTION_DOT,MEAN_MOTION_DDOT,TLE_LINE0,TLE_LINE1,TLE_LINE2,SEMIMAJOR_AXIS,PERIOD,APOGEE,PERIGEE,DECAYED
53931.0,STARLINK-5015,PAYLOAD,2022-12-08 10:42:03,15.73235661,0.0003558,53.2124,244.3683,353.771,6.3266,9.2235e-05,0.00012363,0.0,0 STARLINK-5015,1 53931U 22119AX  22342.44587715  .00012363  00000-0  92235-4 0  9990,2 53931  53.2124 244.3683 0003558 353.7710   6.3266 15.73235661 12585,6727.794,91.531,352.052,347.265,0.0
53931.0,STARLINK-5015,PAYLOAD,2022-12-09 00:25:22,15.73229428,0.0003738,53.2125,241.5405,3.8886,356.2162,2.9474e-05,3.52e-05,0.0,0 STARLINK-5015,1 53931U 22119AX  22343.01762388  .00003520  00000-0  29474-4 0  9995,2 53931  53.2125 241.5405 0003738   3.8886 356.2162 15.73229428 12243,6727.811,91.531,352.191,347.161,0.0
53931.0,STARLINK-5015,PAYLOAD,2022-12-09 03:28:19,15.73258927,0.0003786,53.2123,240.9105,5.2591,354.8468,0.0001037,0.00013995,0.0,0 STARLINK-5015,1 53931U 22119AX  22343.14466647  .00013995  00000-0  10370-3 0  9999,2 53931  53.2123 240.9105 0003786   5.2591 354.8468 15.73258927 12691,6727.727,91.53,352.139,347.045,0.0
53931.0,STARLINK-5015,PAYLOAD,2022-12-10 02:20:23,15.73347702,0.0004616,53.2121,236.1949,10.2362,349.8751,0.00016618,0.00022921,0.0,0 STARLINK-5015,1 53931U 22119AX  22344.09749096  .00022921  00000-0  16618-3 0  9996,2 53931  53.2121 236.1949 0004616  10.2362 349.8751 15.73347702 12416,6727.474,91.525,352.445,346.2340000000001,0.0
53931.0,STARLINK-5015,PAYLOAD,2022-12-11 02:44:01,15.73288885,0.0002658,53.2121,231.168,12.4076,347.7009,-6.7458e-05,-0.00010117,0.0,0 STARLINK-5015,1 53931U 22119AX  22345.11390157 -.00010117  00000-0 -67458-4 0  9995,2 53931  53.2121 231.1680 0002658  12.4076 347.7009 15.73288885 12579,6727.642,91.528,351.295,347.719,0.0
53931.0,STARLINK-5015,PAYLOAD,2022-12-11 16:27:12,15.73684195,0.000168,53.2122,228.337,331.6384,28.4545,0.00089056,0.0012896,0.0,0 STARLINK-5015,1 53931U 22119AX  22345.68556249  .00128960  00000-0  89056-3 0  9994,2 53931  53.2122 228.3370 0001680 331.6384  28.4545 15.73684195 12668,6726.515,91.505,349.51,347.25,0.0
53931.0,STARLINK-5015,PAYLOAD,2022-12-12 16:51:16,15.73215887,0.0003389,53.2118,223.3067,15.3642,344.7481,3.3852e-05,4.134e-05,0.0,0 STARLINK-5015,1 53931U 22119AX  22346.70226995  .00004134  00000-0  33852-4 0  9990,2 53931  53.2118 223.3067 0003389  15.3642 344.7481 15.73215887 12821,6727.85,91.532,351.995,347.435,0.0
53931.0,STARLINK-5015,PAYLOAD,2022-12-13 00:28:40,15.73198166,0.0003389,53.2111,221.7318,12.6498,347.4607,-9.7797e-06,-1.996e-05,0.0,0 STARLINK-5015,1 53931U 22119AX  22347.01991631 -.00001996  00000-0 -97797-5 0  9995,2 53931  53.2111 221.7318 0003389  12.6498 347.4607 15.73198166 12879,6727.9,91.533,352.045,347.485,0.0
53931.0,STARLINK-5015,PAYLOAD,2022-12-13 15:43:29,15.73198226,0.0003288,53.2117,218.5881,14.2186,345.8926,-8.6313e-06,-1.835e-05,0.0,0 STARLINK-5015,1 53931U 22119AX  22347.65519697 -.00001835  00000-0 -86313-5 0  9997,2 53931  53.2117 218.5881 0003288  14.2186 345.8926 15.73198226 13407,6727.9,91.533,351.977,347.55300000000005,0.0
53931.0,STARLINK-5015,PAYLOAD,2022-12-14 00:52:20,15.73226867,0.0003329,53.2117,216.7015,11.6171,348.4926,5.173e-05,6.652e-05,0.0,0 STARLINK-5015,1 53931U 22119AX  22348.03635232  .00006652  00000-0  51730-4 0  9998,2 53931  53.2117 216.7015 0003329  11.6171 348.4926 15.73226867 13038,6727.819,91.532,351.923,347.444,0.0
53931.0,STARLINK-5015,PAYLOAD,2022-12-15 01:16:04,15.73106157,0.0003691,53.212,211.6717,19.6222,340.4939,-0.00021304,-0.00030307,0.0,0 STARLINK-5015,1 53931U 22119AX  22349.05283534 -.00030307  00000-0 -21304-3 0  9994,2 53931  53.2120 211.6717 0003691  19.6222 340.4939 15.73106157 13194,6728.163000000001,91.539,352.511,347.5440000000001,0.0
53931.0,STARLINK-5015,PAYLOAD,2022-12-15 10:24:54,15.73216845,0.0003346,53.2118,209.7849,6.0622,354.0438,5.8088e-05,7.544e-05,0.0,0 STARLINK-5015,1 53931U 22119AX  22349.43396130  .00007544  00000-0  58088-4 0  9998,2 53931  53.2118 209.7849 0003346   6.0622 354.0438 15.73216845 13254,6727.847,91.532,351.963,347.461,0.0
53931.0,STARLINK-5015,PAYLOAD,2022-12-15 11:56:23,15.73215661,0.0004039,53.2112,209.4717,6.7016,353.4058,1.1848e-05,1.04e-05,0.0,0 STARLINK-5015,1 53931U 22119AX  22349.49748861  .00001040  00000-0  11848-4 0  9994,2 53931  53.2112 209.4717 0004039   6.7016 353.4058 15.73215661 13697,6727.851,91.532,352.43300000000005,346.99800000000016,0.0
53931.0,STARLINK-5015,PAYLOAD,2022-12-15 19:33:46,15.73218909,0.000346,53.2119,207.8992,11.5767,348.5333,2.5565e-06,-2.65e-06,0.0,0 STARLINK-5015,1 53931U 22119AX  22349.81512409 -.00000265  00000-0  25565-5 0  9998,2 53931  53.2119 207.8992 0003460  11.5767 348.5333 15.73218909 13740,6727.840999999999,91.532,352.034,347.37800000000016,0.0
53931.0,STARLINK-5015,PAYLOAD,2022-12-16 03:12:29,15.71128615,0.0005099999999999,53.21100000000001,206.3323,106.1253,254.0327,-0.0044925,-0.0054281,0.0,0 STARLINK-5015,1 53931U 22119AX  22350.13367023 -.00542810  00000-0 -44925-2 0  9991,2 53931  53.2110 206.3323 0005100 106.1253 254.0327 15.71128615 13361,6733.807,91.654,359.107,352.23800000000006,0.0
53931.0,STARLINK-5015,PAYLOAD,2022-12-16 14:00:01,15.73191221,0.0003488,53.2114,204.0964,5.997000000000001,27.4626,-2.0662e-05,-3.522e-05,0.0,0 STARLINK-5015,1 53931U 22119AX  22350.58334491 -.00003522  00000-0 -20662-4 0  9999,2 53931  53.2114 204.0964 0003488   5.9970  27.4626 15.73191221 13437,6727.92,91.534,352.13199999999995,347.439,0.0
53931.0,STARLINK-5015,PAYLOAD,2022-12-16 18:26:05,15.73178176,0.0003081,53.2115,203.1832,13.4295,346.6806,1.3896e-05,1.326e-05,0.0,0 STARLINK-5015,1 53931U 22119AX  22350.76812281  .00001326  00000-0  13896-4 0  9996,2 53931  53.2115 203.1832 0003081  13.4295 346.6806 15.73178176 13468,6727.956999999999,91.534,351.895,347.75,0.0
53931.0,STARLINK-5015,PAYLOAD,2022-12-16 19:57:33,15.73229017,0.0002907,53.2112,202.8687,12.5489,347.5603,0.00013191,0.00017956,0.0,0 STARLINK-5015,1 53931U 22119AX  22350.83163276  .00017956  00000-0  13191-3 0  9990,2 53931  53.2112 202.8687 0002907  12.5489 347.5603 15.73229017 13905,6727.812,91.531,351.6330000000001,347.722,0.0
53931.0,STARLINK-5015,PAYLOAD,2022-12-17 03:34:57,15.73212519,0.0002595,53.2115,201.2969,19.6798,340.4322,8.9815e-05,0.00012009,0.0,0 STARLINK-5015,1 53931U 22119AX  22351.14927637  .00012009  00000-0  89815-4 0  9995,2 53931  53.2115 201.2969 0002595  19.6798 340.4322 15.73212519 13525,6727.859,91.532,351.47,347.97900000000016,0.0
53931.0,STARLINK-5015,PAYLOAD,2022-12-17 17:18:12,15.73181958,0.0003826,53.2123,198.4674,5.4073,354.6988,-1.6209e-05,-2.898e-05,0.0,0 STARLINK-5015,1 53931U 22119AX  22351.72098224 -.00002898  00000-0 -16209-4 0  9994,2 53931  53.2123 198.4674 0003826   5.4073 354.6988 15.73181958 13618,6727.946999999999,91.534,352.386,347.23800000000006,0.0
53931.0,STARLINK-5015,PAYLOAD,2022-12-17 18:49:41,15.73196988,0.0003797,53.2118,198.153,10.0178,350.0918,2.0134e-05,2.203e-05,0.0,0 STARLINK-5015,1 53931U 22119AX  22351.78450705  .00002203  00000-0  20134-4 0  9996,2 53931  53.2118 198.1530 0003797  10.0178 350.0918 15.73196988 14056,6727.904,91.533,352.3230000000001,347.214,0.0
53931.0,STARLINK-5015,PAYLOAD,2022-12-17 23:24:07,15.73212215,0.0003635,53.2117,197.2095,10.9083,349.2016,7.098e-05,9.357e-05,0.0,0 STARLINK-5015,1 53931U 22119AX  22351.97508675  .00009357  00000-0  70980-4 0  9998,2 53931  53.2117 197.2095 0003635  10.9083 349.2016 15.73212215 13652,6727.86,91.532,352.171,347.28,0.0
53931.0,STARLINK-5015,PAYLOAD,2022-12-18 13:07:26,15.7323792,0.0004138,53.2121,194.3818,15.1156,344.9987,0.0001718,0.00023604,0.0,0 STARLINK-5015,1 53931U 22119AX  22352.54683435  .00023604  00000-0  17180-3 0  9993,2 53931  53.2121 194.3818 0004138  15.1156 344.9987 15.73237920 14172,6727.7869999999975,91.531,352.436,346.86800000000005,0.0
53931.0,STARLINK-5015,PAYLOAD,2022-12-18 19:13:21,15.73244739,0.0004017,53.2122,193.1244,9.0806,351.0286,0.00011412,0.00015458,0.0,0 STARLINK-5015,1 53931U 22119AX  22352.80093849  .00015458  00000-0  11412-3 0  9996,2 53931  53.2122 193.1244 0004017   9.0806 351.0286 15.73244739 14215,6727.768,91.531,352.335,346.93,0.0
53931.0,STARLINK-5015,PAYLOAD,2022-12-18 23:47:47,15.73236399,0.0002829,53.2112,192.1798,6.5044,353.6013,2.8977e-05,3.453e-05,0.0,0 STARLINK-5015,1 53931U 22119AX  22352.99151748  .00003453  00000-0  28977-4 0  9996,2 53931  53.2112 192.1798 0002829   6.5044 353.6013 15.73236399 13816,6727.791,91.531,351.56,347.75300000000016,0.0
53931.0,STARLINK-5015,PAYLOAD,2022-12-19 19:37:00,15.73245973,0.0003991,53.2115,188.0931,3.9291,356.176,7.6736e-05,0.00010183,0.0,0 STARLINK-5015,1 53931U 22119AX  22353.81736362  .00010183  00000-0  76736-4 0  9993,2 53931  53.2115 188.0931 0003991   3.9291 356.1760 15.73245973 14375,6727.764,91.531,352.314,346.944,0.0
53931.0,STARLINK-5015,PAYLOAD,2022-12-19 22:39:58,15.73220329,0.0003646,53.2116,187.4635,8.0345,352.0733,-2.4281e-05,-4.035e-05,0.0,0 STARLINK-5015,1 53931U 22119AX  22353.94442418 -.00004035  00000-0 -24281-4 0  9992,2 53931  53.2116 187.4635 0003646   8.0345 352.0733 15.73220329 13960,6727.837,91.532,352.155,347.249,0.0
53931.0,STARLINK-5015,PAYLOAD,2022-12-20 06:17:21,15.73237021,0.0003514,53.2112,185.8918,11.0567,349.0529,7.0281e-05,9.269e-05,0.0,0 STARLINK-5015,1 53931U 22119AX  22354.26205698  .00009269  00000-0  70281-4 0  9998,2 53931  53.2112 185.8918 0003514  11.0567 349.0529 15.73237021 14019,6727.79,91.531,352.019,347.29,0.0
53931.0,STARLINK-5015,PAYLOAD,2022-12-20 12:23:16,15.73236481,0.0003891,53.2113,184.6346,8.2601,351.8483,0.00014253,0.00019464,0.0,0 STARLINK-5015,1 53931U 22119AX  22354.51616549  .00019464  00000-0  14253-3 0  9991,2 53931  53.2113 184.6346 0003891   8.2601 351.8483 15.73236481 14487,6727.791,91.531,352.274,347.038,0.0
